[{"OBJECT_NAME":"NISAR","OBJECT_ID":"2025-163A","EPOCH":"2026-03-09T23:23:00.539520","MEAN_MOTION":14.42502005,"ECCENTRICITY":0.00012255,"INCLINATION":98.4063,"RA_OF_ASC_NODE":258.0769,"ARG_OF_PERICENTER":90.8877,"MEAN_ANOMALY":269.2453,"EPHEMERIS_TYPE":0,"CLASSIFICATION_TYPE":"U","NORAD_CAT_ID":65053,"ELEMENT_SET_NO":999,"REV_AT_EPOCH":3208,"BSTAR":7.226955e-6,"MEAN_MOTION_DOT":-2.0e-7,"MEAN_MOTION_DDOT":0},{"OBJECT_NAME":"COSMOS 2251 DEB","OBJECT_ID":"1993-036ABQ","EPOCH":"2026-03-09T20:02:07.023264","MEAN_MOTION":14.47807638,"ECCENTRICITY":0.00239263,"INCLINATION":74.0284,"RA_OF_ASC_NODE":98.8234,"ARG_OF_PERICENTER":153.3637,"MEAN_ANOMALY":206.8757,"EPHEMERIS_TYPE":0,"CLASSIFICATION_TYPE":"U","NORAD_CAT_ID":34846,"ELEMENT_SET_NO":999,"REV_AT_EPOCH":88664,"BSTAR":0.00066340046,"MEAN_MOTION_DOT":2.436e-5,"MEAN_MOTION_DDOT":0}]
